ION SCV-004             
1 50993U 22002K   26068.68892644  .00006538  00000+0  23198-3 0  9998
2 50993  97.2961 128.2294 0007216   1.6783 358.4480 15.29369331230088
STARLINK-30521          
1 57966U 23151C   26068.13170808 -.00004893  00000+0 -16835-3 0  9996
2 57966  43.0018 338.9336 0002016 248.1219 111.9418 15.27587305135683
